[{"OBJECT_NAME":"BRO-15","OBJECT_ID":"2024-149CP","EPOCH":"2026-03-09T18:52:33.918816","MEAN_MOTION":14.95892184,"ECCENTRICITY":0.00093198,"INCLINATION":97.6864,"RA_OF_ASC_NODE":146.0377,"ARG_OF_PERICENTER":65.4416,"MEAN_ANOMALY":294.7775,"EPHEMERIS_TYPE":0,"CLASSIFICATION_TYPE":"U","NORAD_CAT_ID":60553,"ELEMENT_SET_NO":999,"REV_AT_EPOCH":8514,"BSTAR":7.8021491e-5,"MEAN_MOTION_DOT":8.16e-6,"MEAN_MOTION_DDOT":0},{"OBJECT_NAME":"STARLINK-35476","OBJECT_ID":"2025-280E","EPOCH":"2026-03-09T21:33:09.277920","MEAN_MOTION":14.98331795,"ECCENTRICITY":0.00026365,"INCLINATION":70.0019,"RA_OF_ASC_NODE":334.0691,"ARG_OF_PERICENTER":266.3265,"MEAN_ANOMALY":93.7592,"EPHEMERIS_TYPE":0,"CLASSIFICATION_TYPE":"U","NORAD_CAT_ID":66825,"ELEMENT_SET_NO":999,"REV_AT_EPOCH":1610,"BSTAR":0.00027541803,"MEAN_MOTION_DOT":3.195e-5,"MEAN_MOTION_DDOT":0}]
